start=new Date('2021-09-18T00:00:00.000Z').valueOf();
sats=[{"INCLINATION":"53.0538","PERIOD":"95.593","RCS_SIZE":"LARGE","APOAPSIS":"548.943","LAUNCH_DATE":"2021-05-04","OBJECT_ID":"2021-038BC","FILE":"3118116","BSTAR":"0.00002348400000","MEAN_MOTION_DOT":"0.00000068","COUNTRY_CODE":"US","MEAN_MOTION":"15.06391597","CLASSIFICATION_TYPE":"U","OBJECT_TYPE":"PAYLOAD","TLE_LINE1":"1 48403U 21038BC  21260.91667824  .00000068  00000-0  23484-4 0  9996","NORAD_CAT_ID":"48403","DECAY_DATE":null,"RA_OF_ASC_NODE":"115.8988","TIME_SYSTEM":"UTC","EPOCH":"2021-09-17T22:00:00.999936","OBJECT_NAME":"STARLINK-2561","ARG_OF_PERICENTER":"84.0834","CENTER_NAME":"EARTH","GP_ID":"184914122","SITE":"AFETR","REF_FRAME":"TEME","TLE_LINE2":"2 48403  53.0538 115.8988 0002460  84.0834 126.9215 15.06391597  3605","MEAN_ANOMALY":"126.9215","ECCENTRICITY":"0.00024600","ELEMENT_SET_NO":"999","PERIAPSIS":"545.536","MEAN_ELEMENT_THEORY":"SGP4","REV_AT_EPOCH":"360","SEMIMAJOR_AXIS":"6925.374","EPHEMERIS_TYPE":"0","MEAN_MOTION_DDOT":"0.0000000000000"},{"OBJECT_NAME":"STARLINK-2593","EPOCH":"2021-09-17T22:00:00.999936","RA_OF_ASC_NODE":"115.9029","TIME_SYSTEM":"UTC","ARG_OF_PERICENTER":"87.7014","GP_ID":"184913615","CENTER_NAME":"EARTH","TLE_LINE2":"2 48404  53.0551 115.9029 0002339  87.7014 143.3787 15.06387104  3609","REF_FRAME":"TEME","SITE":"AFETR","ELEMENT_SET_NO":"999","MEAN_ANOMALY":"143.3787","ECCENTRICITY":"0.00023390","REV_AT_EPOCH":"360","MEAN_ELEMENT_THEORY":"SGP4","PERIAPSIS":"545.633","SEMIMAJOR_AXIS":"6925.388","EPHEMERIS_TYPE":"0","MEAN_MOTION_DDOT":"0.0000000000000","RCS_SIZE":"LARGE","PERIOD":"95.593","INCLINATION":"53.0551","APOAPSIS":"548.873","FILE":"3118116","OBJECT_ID":"2021-038BD","BSTAR":"-0.00100030000000","LAUNCH_DATE":"2021-05-04","MEAN_MOTION_DOT":"-0.00015145","COUNTRY_CODE":"US","CLASSIFICATION_TYPE":"U","MEAN_MOTION":"15.06387104","DECAY_DATE":null,"NORAD_CAT_ID":"48404","TLE_LINE1":"1 48404U 21038BD  21260.91667824 -.00015145  00000-0 -10003-2 0  9992","OBJECT_TYPE":"PAYLOAD"},{"REV_AT_EPOCH":"360","MEAN_ELEMENT_THEORY":"SGP4","PERIAPSIS":"545.623","ELEMENT_SET_NO":"999","ECCENTRICITY":"0.00023420","MEAN_ANOMALY":"163.3155","EPHEMERIS_TYPE":"0","MEAN_MOTION_DDOT":"0.0000000000000","SEMIMAJOR_AXIS":"6925.380","ARG_OF_PERICENTER":"87.6738","OBJECT_NAME":"STARLINK-2570","EPOCH":"2021-09-17T22:00:00.999936","RA_OF_ASC_NODE":"115.9020","TIME_SYSTEM":"UTC","TLE_LINE2":"2 48405  53.0547 115.9020 0002342  87.6738 163.3155 15.06389767  3600","REF_FRAME":"TEME","SITE":"AFETR","GP_ID":"184913713","CENTER_NAME":"EARTH","CLASSIFICATION_TYPE":"U","MEAN_MOTION":"15.06389767","COUNTRY_CODE":"US","DECAY_DATE":null,"NORAD_CAT_ID":"48405","TLE_LINE1":"1 48405U 21038BE  21260.91667824  .00001539  00000-0  12225-3 0  9992","OBJECT_TYPE":"PAYLOAD","APOAPSIS":"548.867","PERIOD":"95.593","RCS_SIZE":"LARGE","INCLINATION":"53.0547","MEAN_MOTION_DOT":"0.00001539","FILE":"3118116","OBJECT_ID":"2021-038BE","BSTAR":"0.00012225000000","LAUNCH_DATE":"2021-05-04"},{"CLASSIFICATION_TYPE":"U","MEAN_MOTION":"15.06399917","COUNTRY_CODE":"US","NORAD_CAT_ID":"48406","DECAY_DATE":null,"OBJECT_TYPE":"PAYLOAD","TLE_LINE1":"1 48406U 21038BF  21260.91667824  .00001489  00000-0  11887-3 0  9990","APOAPSIS":"548.980","RCS_SIZE":"LARGE","PERIOD":"95.592","INCLINATION":"53.0537","MEAN_MOTION_DOT":"0.00001489","OBJECT_ID":"2021-038BF","FILE":"3118116","BSTAR":"0.00011887000000","LAUNCH_DATE":"2021-05-04","REV_AT_EPOCH":"360","PERIAPSIS":"545.448","MEAN_ELEMENT_THEORY":"SGP4","ELEMENT_SET_NO":"999","ECCENTRICITY":"0.00025500","MEAN_ANOMALY":"183.0078","MEAN_MOTION_DDOT":"0.0000000000000","EPHEMERIS_TYPE":"0","SEMIMAJOR_AXIS":"6925.349","ARG_OF_PERICENTER":"88.0488","EPOCH":"2021-09-17T22:00:00.999936","OBJECT_NAME":"STARLINK-2568","RA_OF_ASC_NODE":"115.8992","TIME_SYSTEM":"UTC","REF_FRAME":"TEME","TLE_LINE2":"2 48406  53.0537 115.8992 0002550  88.0488 183.0078 15.06399917  3606","SITE":"AFETR","CENTER_NAME":"EARTH","GP_ID":"184913518"},{"TLE_LINE1":"1 48407U 21038BG  21260.91667824  .00000950  00000-0  82688-4 0  9991","OBJECT_TYPE":"PAYLOAD","DECAY_DATE":null,"NORAD_CAT_ID":"48407","MEAN_MOTION":"15.06394060","CLASSIFICATION_TYPE":"U","COUNTRY_CODE":"US","MEAN_MOTION_DOT":"0.00000950","LAUNCH_DATE":"2021-05-04","FILE":"3118116","BSTAR":"0.00008268800000","OBJECT_ID":"2021-038BG","APOAPSIS":"548.813","INCLINATION":"53.0461","PERIOD":"95.593","RCS_SIZE":"LARGE","EPHEMERIS_TYPE":"0","MEAN_MOTION_DDOT":"0.0000000000000","SEMIMAJOR_AXIS":"6925.367","MEAN_ELEMENT_THEORY":"SGP4","PERIAPSIS":"545.651","REV_AT_EPOCH":"360","MEAN_ANOMALY":"197.1238","ECCENTRICITY":"0.00022830","ELEMENT_SET_NO":"999","SITE":"AFETR","TLE_LINE2":"2 48407  53.0461 115.9324 0002283  93.9043 197.1238 15.06394060  3606","REF_FRAME":"TEME","GP_ID":"184913811","CENTER_NAME":"EARTH","ARG_OF_PERICENTER":"93.9043","RA_OF_ASC_NODE":"115.9324","TIME_SYSTEM":"UTC","OBJECT_NAME":"STARLINK-2595","EPOCH":"2021-09-17T22:00:00.999936"},{"APOAPSIS":"548.909","INCLINATION":"53.0511","PERIOD":"95.593","RCS_SIZE":"LARGE","MEAN_MOTION_DOT":"-0.00000089","LAUNCH_DATE":"2021-05-04","FILE":"3118116","OBJECT_ID":"2021-038BH","BSTAR":"0.00001295100000","MEAN_MOTION":"15.06381959","CLASSIFICATION_TYPE":"U","COUNTRY_CODE":"US","TLE_LINE1":"1 48408U 21038BH  21260.91667824 -.00000089  00000-0  12951-4 0  9992","OBJECT_TYPE":"PAYLOAD","DECAY_DATE":null,"NORAD_CAT_ID":"48408","ARG_OF_PERICENTER":"84.5236","TIME_SYSTEM":"UTC","RA_OF_ASC_NODE":"115.9071","OBJECT_NAME":"STARLINK-2592","EPOCH":"2021-09-17T22:00:00.999936","SITE":"AFETR","TLE_LINE2":"2 48408  53.0511 115.9071 0002369  84.5236 226.4590 15.06381959  3607","REF_FRAME":"TEME","GP_ID":"184913929","CENTER_NAME":"EARTH","MEAN_ELEMENT_THEORY":"SGP4","PERIAPSIS":"545.628","REV_AT_EPOCH":"360","MEAN_ANOMALY":"226.4590","ECCENTRICITY":"0.00023690","ELEMENT_SET_NO":"999","EPHEMERIS_TYPE":"0","MEAN_MOTION_DDOT":"0.0000000000000","SEMIMAJOR_AXIS":"6925.404"},{"EPOCH":"2021-09-17T22:00:00.999936","OBJECT_NAME":"STARLINK-2596","TIME_SYSTEM":"UTC","RA_OF_ASC_NODE":"120.9032","ARG_OF_PERICENTER":"82.6791","CENTER_NAME":"EARTH","GP_ID":"184914026","REF_FRAME":"TEME","TLE_LINE2":"2 48409  53.0537 120.9032 0002449  82.6791 100.8639 15.06382889  3605","SITE":"AFETR","ELEMENT_SET_NO":"999","MEAN_ANOMALY":"100.8639","ECCENTRICITY":"0.00024490","REV_AT_EPOCH":"360","PERIAPSIS":"545.570","MEAN_ELEMENT_THEORY":"SGP4","SEMIMAJOR_AXIS":"6925.401","MEAN_MOTION_DDOT":"0.0000000000000","EPHEMERIS_TYPE":"0","RCS_SIZE":"LARGE","PERIOD":"95.593","INCLINATION":"53.0537","APOAPSIS":"548.962","OBJECT_ID":"2021-038BJ","FILE":"3118116","BSTAR":"-0.00037424000000","LAUNCH_DATE":"2021-05-04","MEAN_MOTION_DOT":"-0.00005849","COUNTRY_CODE":"US","CLASSIFICATION_TYPE":"U","MEAN_MOTION":"15.06382889","NORAD_CAT_ID":"48409","DECAY_DATE":null,"OBJECT_TYPE":"PAYLOAD","TLE_LINE1":"1 48409U 21038BJ  21260.91667824 -.00005849  00000-0 -37424-3 0  9994"},{"COUNTRY_CODE":"US","CLASSIFICATION_TYPE":"U","MEAN_MOTION":"15.73170881","NORAD_CAT_ID":"48410","DECAY_DATE":null,"OBJECT_TYPE":"PAYLOAD","TLE_LINE1":"1 48410U 21038BK  21260.91667824  .00057119  00000-0  40890-3 0  9992","RCS_SIZE":"LARGE","PERIOD":"91.535","INCLINATION":"53.0479","APOAPSIS":"352.812","FILE":"3118116","BSTAR":"0.00040890000000","OBJECT_ID":"2021-038BK","LAUNCH_DATE":"2021-05-04","MEAN_MOTION_DOT":"0.00057119","ELEMENT_SET_NO":"999","ECCENTRICITY":"0.00044130","MEAN_ANOMALY":"271.3555","REV_AT_EPOCH":"370","PERIAPSIS":"346.874","MEAN_ELEMENT_THEORY":"SGP4","SEMIMAJOR_AXIS":"6727.978","MEAN_MOTION_DDOT":"0.0000000000000","EPHEMERIS_TYPE":"0","EPOCH":"2021-09-17T22:00:00.999936","OBJECT_NAME":"STARLINK-2563","TIME_SYSTEM":"UTC","RA_OF_ASC_NODE":"87.6497","ARG_OF_PERICENTER":"5.0703","CENTER_NAME":"EARTH","GP_ID":"184913832","REF_FRAME":"TEME","TLE_LINE2":"2 48410  53.0479  87.6497 0004413   5.0703 271.3555 15.73170881  3704","SITE":"AFETR"},{"CLASSIFICATION_TYPE":"U","MEAN_MOTION":"15.73205501","COUNTRY_CODE":"US","DECAY_DATE":null,"NORAD_CAT_ID":"48411","TLE_LINE1":"1 48411U 21038BL  21260.91667824  .00026992  00000-0  19598-3 0  9999","OBJECT_TYPE":"PAYLOAD","APOAPSIS":"352.627","PERIOD":"91.533","RCS_SIZE":"LARGE","INCLINATION":"53.0478","MEAN_MOTION_DOT":"0.00026992","FILE":"3118116","BSTAR":"0.00019598000000","OBJECT_ID":"2021-038BL","LAUNCH_DATE":"2021-05-04","REV_AT_EPOCH":"370","MEAN_ELEMENT_THEORY":"SGP4","PERIAPSIS":"346.862","ELEMENT_SET_NO":"999","ECCENTRICITY":"0.00042850","MEAN_ANOMALY":"274.5465","EPHEMERIS_TYPE":"0","MEAN_MOTION_DDOT":"0.0000000000000","SEMIMAJOR_AXIS":"6727.879","ARG_OF_PERICENTER":"2.5335","OBJECT_NAME":"STARLINK-2505","EPOCH":"2021-09-17T22:00:00.999936","TIME_SYSTEM":"UTC","RA_OF_ASC_NODE":"87.6453","TLE_LINE2":"2 48411  53.0478  87.6453 0004285   2.5335 274.5465 15.73205501  3709","REF_FRAME":"TEME","SITE":"AFETR","GP_ID":"184914123","CENTER_NAME":"EARTH"},{"TLE_LINE1":"1 48412U 21038BM  21260.91667824  .00058288  00000-0  41711-3 0  9995","OBJECT_TYPE":"PAYLOAD","DECAY_DATE":null,"NORAD_CAT_ID":"48412","MEAN_MOTION":"15.73171672","CLASSIFICATION_TYPE":"U","COUNTRY_CODE":"US","MEAN_MOTION_DOT":"0.00058288","LAUNCH_DATE":"2021-05-04","OBJECT_ID":"2021-038BM","FILE":"3118116","BSTAR":"0.00041711000000","APOAPSIS":"352.806","INCLINATION":"53.0479","RCS_SIZE":"LARGE","PERIOD":"91.535","MEAN_MOTION_DDOT":"0.0000000000000","EPHEMERIS_TYPE":"0","SEMIMAJOR_AXIS":"6727.976","MEAN_ELEMENT_THEORY":"SGP4","PERIAPSIS":"346.876","REV_AT_EPOCH":"370","ECCENTRICITY":"0.00044070","MEAN_ANOMALY":"272.1842","ELEMENT_SET_NO":"999","SITE":"AFETR","TLE_LINE2":"2 48412  53.0479  87.6476 0004407   5.4392 272.1842 15.73171672  3701","REF_FRAME":"TEME","GP_ID":"184913616","CENTER_NAME":"EARTH","ARG_OF_PERICENTER":"5.4392","RA_OF_ASC_NODE":"87.6476","TIME_SYSTEM":"UTC","OBJECT_NAME":"STARLINK-2581","EPOCH":"2021-09-17T22:00:00.999936"}];
